CCSDS_OMM_VERS,COMMENT,CREATION_DATE,ORIGINATOR,OBJECT_NAME,OBJECT_ID,CENTER_NAME,REF_FRAME,TIME_SYSTEM,MEAN_ELEMENT_THEORY,EPOCH,MEAN_MOTION,ECCENTRICITY,INCLINATION,RA_OF_ASC_NODE,ARG_OF_PERICENTER,MEAN_ANOMALY,EPHEMERIS_TYPE,CLASSIFICATION_TYPE,NORAD_CAT_ID,ELEMENT_SET_NO,REV_AT_EPOCH,BSTAR,MEAN_MOTION_DOT,MEAN_MOTION_DDOT,SEMIMAJOR_AXIS,PERIOD,APOAPSIS,PERIAPSIS,OBJECT_TYPE,RCS_SIZE,COUNTRY_CODE,LAUNCH_DATE,SITE,DECAY_DATE,FILE,GP_ID,TLE_LINE0,TLE_LINE1,TLE_LINE2
"2.0","GENERATED VIA SPACE-TRACK.ORG API","2019-12-30T16:30:15","18 SPCS","IRIDIUM 153","2017-083J","EARTH","TEME","UTC","SGP4","2019-12-30T14:33:14.554080","14.34218908","0.00014970","86.3988","196.9125","120.1732","239.9612","0","U","43078","999","10693","-0.00000558320000","0.00000004","0.0000000000000","7155.800","100.403","778.736","776.594","PAYLOAD","LARGE","US","2017-12-23","AFWTR","","2675769","145785498","0 IRIDIUM 153","1 43078U 17083J   19364.60641845  .00000004  00000-0 -55832-5 0  9991","2 43078  86.3988 196.9125 0001497 120.1732 239.9612 14.34218908106937"
"2.0","GENERATED VIA SPACE-TRACK.ORG API","2019-12-30T06:20:15","18 SPCS","COSMOS 1867","1987-060A","EARTH","TEME","UTC","SGP4","2019-12-30T03:49:28.137216","14.31108935","0.00157230","65.0092","157.3327","258.3647","101.5673","0","U","18187","999","69650","-0.00000039780000","-0.00000101","0.0000000000000","7166.163","100.621","799.295","776.761","PAYLOAD","LARGE","CIS","1987-07-10","TTMTR","","2675420","145777391","0 COSMOS 1867","1 18187U 87060A   19364.15935344 -.00000101  00000-0 -39780-6 0  9990","2 18187  65.0092 157.3327 0015723 258.3647 101.5673 14.31108935696504"
"2.0","GENERATED VIA SPACE-TRACK.ORG API","2019-12-30T03:58:12","18 SPCS","IRIDIUM 153","2017-083J","EARTH","TEME","UTC","SGP4","2019-12-29T21:48:34.603776","14.34218890","0.00014540","86.3988","197.2039","120.0299","240.1041","0","U","43078","999","10683","-0.00000685500000","0.00000001","0.0000000000000","7155.800","100.403","778.705","776.624","PAYLOAD","LARGE","US","2017-12-23","AFWTR","","2675404","145756180","0 IRIDIUM 153","1 43078U 17083J   19363.90873384 +.00000001 +00000-0 -68550-5 0  9996","2 43078 086.3988 197.2039 0001454 120.0299 240.1041 14.34218890106834"
"2.0","GENERATED VIA SPACE-TRACK.ORG API","2019-12-30T03:58:12","18 SPCS","COSMOS 1867","1987-060A","EARTH","TEME","UTC","SGP4","2019-12-29T17:45:41.931360","14.31108931","0.00157330","65.0092","158.5062","258.3373","101.5945","0","U","18187","999","69621","-0.00000342420000","-0.00000109","0.0000000000000","7166.163","100.621","799.303","776.753","PAYLOAD","LARGE","CIS","1987-07-10","TTMTR","","2675404","145742645","0 COSMOS 1867","1 18187U 87060A   19363.74006865 -.00000109 +00000-0 -34242-5 0  9996","2 18187 065.0092 158.5062 0015733 258.3373 101.5945 14.31108931696216"
"2.0","GENERATED VIA SPACE-TRACK.ORG API","2019-12-29T18:40:14","18 SPCS","IRIDIUM 153","2017-083J","EARTH","TEME","UTC","SGP4","2019-12-29T15:06:42.621408","14.34218903","0.00014330","86.3989","197.3204","119.7702","240.3637","0","U","43078","999","10679","-0.00000684660000","0.00000001","0.0000000000000","7155.800","100.403","778.690","776.639","PAYLOAD","LARGE","US","2017-12-23","AFWTR","","2675229","145734578","0 IRIDIUM 153","1 43078U 17083J   19363.62965997  .00000001  00000-0 -68466-5 0  9993","2 43078  86.3989 197.3204 0001433 119.7702 240.3637 14.34218903106794"
"2.0","GENERATED VIA SPACE-TRACK.ORG API","2019-12-29T04:33:10","18 SPCS","IRIDIUM 153","2017-083J","EARTH","TEME","UTC","SGP4","2019-12-28T22:22:02.666784","14.34218937","0.00013910","86.3989","197.6117","119.6662","240.4672","0","U","43078","999","10669","-0.00000550220000","0.00000004","0.0000000000000","7155.800","100.403","778.660","776.669","PAYLOAD","LARGE","US","2017-12-23","AFWTR","","2674900","145686144","0 IRIDIUM 153","1 43078U 17083J   19362.93197531 +.00000004 +00000-0 -55022-5 0  9994","2 43078 086.3989 197.6117 0001391 119.6662 240.4672 14.34218937106693"
"2.0","GENERATED VIA SPACE-TRACK.ORG API","2019-12-28T22:20:15","18 SPCS","COSMOS 1867","1987-060A","EARTH","TEME","UTC","SGP4","2019-12-28T19:57:31.826304","14.31108932","0.00157480","65.0091","161.0487","258.3130","101.6187","0","U","18187","999","69631","-0.00000696020000","-0.00000119","0.0000000000000","7166.163","100.621","799.313","776.743","PAYLOAD","LARGE","CIS","1987-07-10","TTMTR","","2674748","145664989","0 COSMOS 1867","1 18187U 87060A   19362.83161836 -.00000119  00000-0 -69602-5 0  9994","2 18187  65.0091 161.0487 0015748 258.3130 101.6187 14.31108932696313"
"2.0","GENERATED VIA SPACE-TRACK.ORG API","2019-12-28T16:40:13","18 SPCS","IRIDIUM 153","2017-083J","EARTH","TEME","UTC","SGP4","2019-12-28T13:59:42.689472","14.34218982","0.00013670","86.3989","197.7574","119.1431","240.9901","0","U","43078","999","10664","-0.00000323980000","0.00000011","0.0000000000000","7155.800","100.403","778.643","776.686","PAYLOAD","LARGE","US","2017-12-23","AFWTR","","2674704","145625078","0 IRIDIUM 153","1 43078U 17083J   19362.58313298  .00000011  00000-0 -32398-5 0  9994","2 43078  86.3989 197.7574 0001367 119.1431 240.9901 14.34218982106648"
"2.0","GENERATED VIA SPACE-TRACK.ORG API","2019-12-28T03:53:41","18 SPCS","COSMOS 1867","1987-060A","EARTH","TEME","UTC","SGP4","2019-12-27T20:28:44.027040","14.31108933","0.00157740","65.0091","163.7868","258.2937","101.6377","0","U","18187","999","69594","-0.00000569580000","-0.00000115","0.0000000000000","7166.163","100.621","799.332","776.724","PAYLOAD","LARGE","CIS","1987-07-10","TTMTR","","2674323","145601371","0 COSMOS 1867","1 18187U 87060A   19361.85328735 -.00000115 +00000-0 -56958-5 0  9994","2 18187 065.0091 163.7868 0015774 258.2937 101.6377 14.31108933695948"
"2.0","GENERATED VIA SPACE-TRACK.ORG API","2019-12-27T22:30:16","18 SPCS","COSMOS 1867","1987-060A","EARTH","TEME","UTC","SGP4","2019-12-27T17:07:28.625664","14.31108939","0.00157820","65.0091","164.1779","258.2775","101.6539","0","U","18187","999","69615","-0.00000501930000","-0.00000113","0.0000000000000","7166.163","100.621","799.338","776.718","PAYLOAD","LARGE","CIS","1987-07-10","TTMTR","","2674157","145593443","0 COSMOS 1867","1 18187U 87060A   19361.71352576 -.00000113  00000-0 -50193-5 0  9992","2 18187  65.0091 164.1779 0015782 258.2775 101.6539 14.31108939696153"
"2.0","GENERATED VIA SPACE-TRACK.ORG API","2019-12-28T03:53:41","18 SPCS","IRIDIUM 153","2017-083J","EARTH","TEME","UTC","SGP4","2019-12-27T16:13:38.762112","14.34219120","0.00014590","86.3985","198.1364","121.8437","238.2901","0","U","43078","999","10651","0.00000169540000","0.00000025","0.0000000000000","7155.799","100.403","778.708","776.620","PAYLOAD","LARGE","US","2017-12-23","AFWTR","","2674323","145614906","0 IRIDIUM 153","1 43078U 17083J   19361.67614308 +.00000025 +00000-0 +16954-5 0  9993","2 43078 086.3985 198.1364 0001459 121.8437 238.2901 14.34219120106515"
"2.0","GENERATED VIA SPACE-TRACK.ORG API","2019-12-27T15:30:13","18 SPCS","IRIDIUM 153","2017-083J","EARTH","TEME","UTC","SGP4","2019-12-27T12:52:42.772224","14.34219154","0.00014480","86.3985","198.1946","121.6821","238.4516","0","U","43078","999","10649","0.00000392920000","0.00000031","0.0000000000000","7155.799","100.403","778.700","776.628","PAYLOAD","LARGE","US","2017-12-23","AFWTR","","2674087","145572867","0 IRIDIUM 153","1 43078U 17083J   19361.53660616  .00000031  00000-0  39292-5 0  9998","2 43078  86.3985 198.1946 0001448 121.6821 238.4516 14.34219154106492"
"2.0","GENERATED VIA SPACE-TRACK.ORG API","2019-12-27T18:01:19","18 SPCS","COSMOS 1867","1987-060A","EARTH","TEME","UTC","SGP4","2019-12-26T17:38:40.837632","14.31108924","0.00157920","65.0090","166.9160","258.2324","101.6989","0","U","18187","999","69578","0.00000199380000","-0.00000095","0.0000000000000","7166.163","100.621","799.345","776.711","PAYLOAD","LARGE","CIS","1987-07-10","TTMTR","","2674120","145577979","0 COSMOS 1867","1 18187U 87060A   19360.73519488 -.00000095 +00000-0 +19938-5 0  9990","2 18187 065.0090 166.9160 0015792 258.2324 101.6989 14.31108924695788"
"2.0","GENERATED VIA SPACE-TRACK.ORG API","2019-12-27T18:01:19","18 SPCS","IRIDIUM 153","2017-083J","EARTH","TEME","UTC","SGP4","2019-12-26T16:47:06.832896","14.34219238","0.00013970","86.3985","198.5442","121.0930","239.0403","0","U","43078","999","10637","0.00001211600000","0.00000054","0.0000000000000","7155.799","100.403","778.663","776.664","PAYLOAD","LARGE","US","2017-12-23","AFWTR","","2674120","145591515","0 IRIDIUM 153","1 43078U 17083J   19360.69938464 +.00000054 +00000-0 +12116-4 0  9993","2 43078 086.3985 198.5442 0001397 121.0930 239.0403 14.34219238106377"
"2.0","GENERATED VIA SPACE-TRACK.ORG API","2019-12-26T15:50:13","18 SPCS","IRIDIUM 153","2017-083J","EARTH","TEME","UTC","SGP4","2019-12-26T11:45:42.847200","14.34219299","0.00013770","86.3985","198.6317","120.8565","239.2766","0","U","43078","999","10634","0.00001674600000","0.00000067","0.0000000000000","7155.799","100.403","778.649","776.678","PAYLOAD","LARGE","US","2017-12-23","AFWTR","","2673487","145520507","0 IRIDIUM 153","1 43078U 17083J   19360.49007925  .00000067  00000-0  16746-4 0  9997","2 43078  86.3985 198.6317 0001377 120.8565 239.2766 14.34219299106346"
"2.0","GENERATED VIA SPACE-TRACK.ORG API","2019-12-26T06:20:17","18 SPCS","COSMOS 1867","1987-060A","EARTH","TEME","UTC","SGP4","2019-12-26T04:13:39.242496","14.31108918","0.00158010","65.0090","168.4806","258.2487","101.6825","0","U","18187","999","69593","0.00000621070000","-0.00000084","0.0000000000000","7166.163","100.621","799.351","776.705","PAYLOAD","LARGE","CIS","1987-07-10","TTMTR","","2673212","145514328","0 COSMOS 1867","1 18187U 87060A   19360.17614864 -.00000084  00000-0  62107-5 0  9996","2 18187  65.0090 168.4806 0015801 258.2487 101.6825 14.31108918695932"
